{"type": "FeatureCollection", "features": [{"type": "Feature", "properties": {"norad_id": 28890, "name": "BEIJING 1", "group": "dmc", "lat": -62.55408036154835, "lon": -89.9488974439696, "alt_km": 687.391348001589, "timestamp": "2025-12-04T19:33:59.297787+00:00", "meta": {"OBJECT_NAME": "BEIJING 1", "OBJECT_ID": "2005-043A", "EPOCH": "2025-12-04T08:36:39.275424", "MEAN_MOTION": 14.63354201, "ECCENTRICITY": 0.00148951, "INCLINATION": 98.265, "RA_OF_ASC_NODE": 105.8463, "ARG_OF_PERICENTER": 166.8039, "MEAN_ANOMALY": 193.3555, "EPHEMERIS_TYPE": 0, "CLASSIFICATION_TYPE": "U", "NORAD_CAT_ID": 28890, "ELEMENT_SET_NO": 999, "REV_AT_EPOCH": 7215, "BSTAR": 0.00017880916, "MEAN_MOTION_DOT": 8.76e-06, "MEAN_MOTION_DDOT": 0}, "tle": {"line1": "1 28890U 05043A   25338.35878791  .00000876  00000+0  17881-3 0  9996", "line2": "2 28890  98.2650 105.8463 0014895 166.8039 193.3555 14.63354201 72151"}}, "geometry": {"type": "Point", "coordinates": [-89.9488974439696, -62.55408036154835]}}, {"type": "Feature", "properties": {"norad_id": 33320, "name": "HUANJING 1A (HJ-1A)", "group": "dmc", "lat": 60.169116993773194, "lon": -46.11661994706488, "alt_km": 598.5117539861967, "timestamp": "2025-12-04T19:33:59.297810+00:00", "meta": {"OBJECT_NAME": "HUANJING 1A (HJ-1A)", "OBJECT_ID": "2008-041A", "EPOCH": "2025-12-04T07:57:37.473408", "MEAN_MOTION": 14.83353044, "ECCENTRICITY": 0.00206157, "INCLINATION": 97.6532, "RA_OF_ASC_NODE": 326.9819, "ARG_OF_PERICENTER": 60.5494, "MEAN_ANOMALY": 299.7774, "EPHEMERIS_TYPE": 0, "CLASSIFICATION_TYPE": "U", "NORAD_CAT_ID": 33320, "ELEMENT_SET_NO": 999, "REV_AT_EPOCH": 92951, "BSTAR": 0.00042238216, "MEAN_MOTION_DOT": 3.424e-05, "MEAN_MOTION_DDOT": 0}, "tle": {"line1": "1 33320U 08041A   25338.33168372  .00003424  00000+0  42238-3 0  9992", "line2": "2 33320  97.6532 326.9819 0020615  60.5494 299.7774 14.83353044929511"}}, "geometry": {"type": "Point", "coordinates": [-46.11661994706488, 60.169116993773194]}}, {"type": "Feature", "properties": {"norad_id": 33321, "name": "HUANJING 1B (HJ-1B)", "group": "dmc", "lat": -60.78550826222672, "lon": -14.949395989438308, "alt_km": 653.1617247986815, "timestamp": "2025-12-04T19:33:59.297822+00:00", "meta": {"OBJECT_NAME": "HUANJING 1B (HJ-1B)", "OBJECT_ID": "2008-041B", "EPOCH": "2025-12-04T06:53:21.063840", "MEAN_MOTION": 14.8278785, "ECCENTRICITY": 0.00381676, "INCLINATION": 97.6396, "RA_OF_ASC_NODE": 330.6581, "ARG_OF_PERICENTER": 102.4885, "MEAN_ANOMALY": 258.0604, "EPHEMERIS_TYPE": 0, "CLASSIFICATION_TYPE": "U", "NORAD_CAT_ID": 33321, "ELEMENT_SET_NO": 999, "REV_AT_EPOCH": 92952, "BSTAR": 0.00028057516, "MEAN_MOTION_DOT": 2.246e-05, "MEAN_MOTION_DDOT": 0}, "tle": {"line1": "1 33321U 08041B   25338.28704935  .00002246  00000+0  28058-3 0  9993", "line2": "2 33321  97.6396 330.6581 0038167 102.4885 258.0604 14.82787850929525"}}, "geometry": {"type": "Point", "coordinates": [-14.949395989438308, -60.78550826222672]}}, {"type": "Feature", "properties": {"norad_id": 33446, "name": "YAOGAN-4", "group": "dmc", "lat": -33.58570040452596, "lon": 83.69081305934603, "alt_km": 634.4006429319943, "timestamp": "2025-12-04T19:33:59.297833+00:00", "meta": {"OBJECT_NAME": "YAOGAN-4", "OBJECT_ID": "2008-061A", "EPOCH": "2025-12-04T05:38:47.404896", "MEAN_MOTION": 14.82640914, "ECCENTRICITY": 0.00143182, "INCLINATION": 97.9169, "RA_OF_ASC_NODE": 268.4187, "ARG_OF_PERICENTER": 351.7897, "MEAN_ANOMALY": 8.3079, "EPHEMERIS_TYPE": 0, "CLASSIFICATION_TYPE": "U", "NORAD_CAT_ID": 33446, "ELEMENT_SET_NO": 999, "REV_AT_EPOCH": 91677, "BSTAR": 0.00043161091, "MEAN_MOTION_DOT": 3.43e-05, "MEAN_MOTION_DDOT": 0}, "tle": {"line1": "1 33446U 08061A   25338.23527089  .00003430  00000+0  43161-3 0  9999", "line2": "2 33446  97.9169 268.4187 0014318 351.7897   8.3079 14.82640914916772"}}, "geometry": {"type": "Point", "coordinates": [83.69081305934603, -33.58570040452596]}}, {"type": "Feature", "properties": {"norad_id": 35681, "name": "DEIMOS-1", "group": "dmc", "lat": -23.750627539250942, "lon": -43.631787348065, "alt_km": 651.5345646951582, "timestamp": "2025-12-04T19:33:59.297843+00:00", "meta": {"OBJECT_NAME": "DEIMOS-1", "OBJECT_ID": "2009-041A", "EPOCH": "2025-12-04T08:52:34.162176", "MEAN_MOTION": 14.7493322, "ECCENTRICITY": 0.0002689, "INCLINATION": 97.7146, "RA_OF_ASC_NODE": 139.3633, "ARG_OF_PERICENTER": 95.19, "MEAN_ANOMALY": 264.9616, "EPHEMERIS_TYPE": 0, "CLASSIFICATION_TYPE": "U", "NORAD_CAT_ID": 35681, "ELEMENT_SET_NO": 999, "REV_AT_EPOCH": 87816, "BSTAR": 0.0002145842, "MEAN_MOTION_DOT": 1.394e-05, "MEAN_MOTION_DDOT": 0}, "tle": {"line1": "1 35681U 09041A   25338.36983984  .00001394  00000+0  21458-3 0  9997", "line2": "2 35681  97.7146 139.3633 0002689  95.1900 264.9616 14.74933220878165"}}, "geometry": {"type": "Point", "coordinates": [-43.631787348065, -23.750627539250942]}}, {"type": "Feature", "properties": {"norad_id": 35683, "name": "UK-DMC 2", "group": "dmc", "lat": -19.80315568483705, "lon": -68.90750612114928, "alt_km": 648.5953197880135, "timestamp": "2025-12-04T19:33:59.297853+00:00", "meta": {"OBJECT_NAME": "UK-DMC 2", "OBJECT_ID": "2009-041C", "EPOCH": "2025-12-04T08:53:55.830912", "MEAN_MOTION": 14.75593799, "ECCENTRICITY": 0.00013049, "INCLINATION": 97.8557, "RA_OF_ASC_NODE": 113.5104, "ARG_OF_PERICENTER": 102.4049, "MEAN_ANOMALY": 257.7307, "EPHEMERIS_TYPE": 0, "CLASSIFICATION_TYPE": "U", "NORAD_CAT_ID": 35683, "ELEMENT_SET_NO": 999, "REV_AT_EPOCH": 87783, "BSTAR": 0.0003040417, "MEAN_MOTION_DOT": 2.025e-05, "MEAN_MOTION_DDOT": 0}, "tle": {"line1": "1 35683U 09041C   25338.37078508  .00002025  00000+0  30404-3 0  9990", "line2": "2 35683  97.8557 113.5104 0001304 102.4049 257.7307 14.75593799877834"}}, "geometry": {"type": "Point", "coordinates": [-68.90750612114928, -19.80315568483705]}}, {"type": "Feature", "properties": {"norad_id": 40715, "name": "DMC3-FM1", "group": "dmc", "lat": -30.650442603777424, "lon": -149.12355403192907, "alt_km": 614.8577245474753, "timestamp": "2025-12-04T19:33:59.297862+00:00", "meta": {"OBJECT_NAME": "DMC3-FM1", "OBJECT_ID": "2015-032A", "EPOCH": "2025-12-04T06:46:18.511680", "MEAN_MOTION": 14.85418216, "ECCENTRICITY": 0.00052578, "INCLINATION": 97.6699, "RA_OF_ASC_NODE": 205.7825, "ARG_OF_PERICENTER": 351.4004, "MEAN_ANOMALY": 8.7121, "EPHEMERIS_TYPE": 0, "CLASSIFICATION_TYPE": "U", "NORAD_CAT_ID": 40715, "ELEMENT_SET_NO": 999, "REV_AT_EPOCH": 56097, "BSTAR": 0.00019707997, "MEAN_MOTION_DOT": 1.647e-05, "MEAN_MOTION_DDOT": 0}, "tle": {"line1": "1 40715U 15032A   25338.28215870  .00001647  00000+0  19708-3 0  9997", "line2": "2 40715  97.6699 205.7825 0005257 351.4004   8.7121 14.85418216560976"}}, "geometry": {"type": "Point", "coordinates": [-149.12355403192907, -30.650442603777424]}}, {"type": "Feature", "properties": {"norad_id": 40716, "name": "DMC3-FM2", "group": "dmc", "lat": -28.693919552775437, "lon": 23.500998494197123, "alt_km": 621.5483065079625, "timestamp": "2025-12-04T19:33:59.297871+00:00", "meta": {"OBJECT_NAME": "DMC3-FM2", "OBJECT_ID": "2015-032B", "EPOCH": "2025-12-04T07:18:42.987744", "MEAN_MOTION": 14.85419661, "ECCENTRICITY": 0.00059062, "INCLINATION": 97.6756, "RA_OF_ASC_NODE": 207.242, "ARG_OF_PERICENTER": 355.5347, "MEAN_ANOMALY": 4.5815, "EPHEMERIS_TYPE": 0, "CLASSIFICATION_TYPE": "U", "NORAD_CAT_ID": 40716, "ELEMENT_SET_NO": 999, "REV_AT_EPOCH": 56097, "BSTAR": 0.00019725155, "MEAN_MOTION_DOT": 1.648e-05, "MEAN_MOTION_DDOT": 0}, "tle": {"line1": "1 40716U 15032B   25338.30466421  .00001648  00000+0  19725-3 0  9991", "line2": "2 40716  97.6756 207.2420 0005906 355.5347   4.5815 14.85419661560974"}}, "geometry": {"type": "Point", "coordinates": [23.500998494197123, -28.693919552775437]}}, {"type": "Feature", "properties": {"norad_id": 40717, "name": "DMC3-FM3", "group": "dmc", "lat": 81.48318004952978, "lon": 93.68268352775621, "alt_km": 605.3291731453064, "timestamp": "2025-12-04T19:33:59.297881+00:00", "meta": {"OBJECT_NAME": "DMC3-FM3", "OBJECT_ID": "2015-032C", "EPOCH": "2025-12-04T07:49:46.756704", "MEAN_MOTION": 14.85412293, "ECCENTRICITY": 0.00052656, "INCLINATION": 97.6811, "RA_OF_ASC_NODE": 208.8903, "ARG_OF_PERICENTER": 357.7387, "MEAN_ANOMALY": 2.3804, "EPHEMERIS_TYPE": 0, "CLASSIFICATION_TYPE": "U", "NORAD_CAT_ID": 40717, "ELEMENT_SET_NO": 999, "REV_AT_EPOCH": 56098, "BSTAR": 0.00015836254, "MEAN_MOTION_DOT": 1.313e-05, "MEAN_MOTION_DDOT": 0}, "tle": {"line1": "1 40717U 15032C   25338.32623561  .00001313  00000+0  15836-3 0  9992", "line2": "2 40717  97.6811 208.8903 0005265 357.7387   2.3804 14.85412293560985"}}, "geometry": {"type": "Point", "coordinates": [93.68268352775621, 81.48318004952978]}}]}